{"type":"FeatureCollection","features":[{"type":"Feature","properties":{"name":"Rajasthan"},"geometry":{"type":"Polygon","coordinates":[[[70.0,30.4],[75.0,30.4],[76.8,27.5],[76.0,24.0],[72.0,23.0],[69.5,25.0],[70.0,30.4]]]}},{"type":"Feature","properties":{"name":"Gujarat"},"geometry":{"type":"Polygon","coordinates":[[[68.0,24.8],[72.2,24.0],[73.8,21.2],[72.0,20.0],[68.2,21.0],[68.0,24.8]]]}},{"type":"Feature","properties":{"name":"Maharashtra"},"geometry":{"type":"Polygon","coordinates":[[[72.0,21.0],[78.5,21.5],[80.5,18.0],[76.5,15.8],[72.7,16.5],[72.0,21.0]]]}},{"type":"Feature","properties":{"name":"Madhya Pradesh"},"geometry":{"type":"Polygon","coordinates":[[[74.0,25.5],[82.5,25.0],[82.0,21.8],[78.0,21.0],[74.5,22.5],[74.0,25.5]]]}},{"type":"Feature","properties":{"name":"Uttar Pradesh"},"geometry":{"type":"Polygon","coordinates":[[[77.0,30.0],[84.5,29.2],[84.0,25.0],[78.0,25.5],[77.0,30.0]]]}},{"type":"Feature","properties":{"name":"Bihar"},"geometry":{"type":"Polygon","coordinates":[[[83.8,27.5],[88.5,27.5],[88.3,24.8],[84.0,25.0],[83.8,27.5]]]}},{"type":"Feature","properties":{"name":"West Bengal"},"geometry":{"type":"Polygon","coordinates":[[[87.5,27.5],[89.8,26.5],[88.8,21.5],[87.0,21.8],[86.8,24.5],[87.5,27.5]]]}},{"type":"Feature","properties":{"name":"Odisha"},"geometry":{"type":"Polygon","coordinates":[[[82.0,21.8],[87.0,21.8],[86.8,18.0],[84.0,17.5],[81.5,19.2],[82.0,21.8]]]}},{"type":"Feature","properties":{"name":"Chhattisgarh"},"geometry":{"type":"Polygon","coordinates":[[[80.0,23.5],[84.0,23.0],[83.5,18.5],[80.2,18.0],[78.5,21.5],[80.0,23.5]]]}},{"type":"Feature","properties":{"name":"Jharkhand"},"geometry":{"type":"Polygon","coordinates":[[[84.0,25.0],[87.5,24.5],[87.0,22.0],[83.5,22.0],[84.0,25.0]]]}},{"type":"Feature","properties":{"name":"Karnataka"},"geometry":{"type":"Polygon","coordinates":[[[74.0,16.5],[78.5,16.0],[78.0,12.0],[75.0,11.5],[74.0,16.5]]]}},{"type":"Feature","properties":{"name":"Goa"},"geometry":{"type":"Polygon","coordinates":[[[73.7,15.8],[74.5,15.8],[74.4,14.8],[73.7,14.8],[73.7,15.8]]]}},{"type":"Feature","properties":{"name":"Kerala"},"geometry":{"type":"Polygon","coordinates":[[[75.0,12.0],[77.2,11.5],[77.5,8.2],[76.2,8.0],[75.0,12.0]]]}},{"type":"Feature","properties":{"name":"Tamil Nadu"},"geometry":{"type":"Polygon","coordinates":[[[77.5,12.5],[80.5,13.0],[80.3,9.0],[78.0,8.0],[77.5,12.5]]]}},{"type":"Feature","properties":{"name":"Andhra Pradesh"},"geometry":{"type":"Polygon","coordinates":[[[78.0,17.8],[82.8,18.2],[84.0,15.0],[80.5,13.0],[78.0,14.0],[78.0,17.8]]]}},{"type":"Feature","properties":{"name":"Telangana"},"geometry":{"type":"Polygon","coordinates":[[[77.8,19.5],[81.0,19.2],[81.5,16.8],[78.5,16.5],[77.8,19.5]]]}},{"type":"Feature","properties":{"name":"Punjab"},"geometry":{"type":"Polygon","coordinates":[[[73.5,32.5],[76.5,32.0],[76.0,30.5],[73.5,30.8],[73.5,32.5]]]}},{"type":"Feature","properties":{"name":"Haryana"},"geometry":{"type":"Polygon","coordinates":[[[75.8,30.8],[77.8,30.4],[77.5,28.0],[75.5,28.0],[75.8,30.8]]]}},{"type":"Feature","properties":{"name":"Himachal Pradesh"},"geometry":{"type":"Polygon","coordinates":[[[75.5,33.5],[78.5,33.3],[78.0,31.2],[75.5,31.4],[75.5,33.5]]]}},{"type":"Feature","properties":{"name":"Uttarakhand"},"geometry":{"type":"Polygon","coordinates":[[[78.0,31.2],[81.2,30.8],[80.5,28.8],[77.8,29.0],[78.0,31.2]]]}},{"type":"Feature","properties":{"name":"Sikkim"},"geometry":{"type":"Polygon","coordinates":[[[88.0,28.2],[88.8,28.2],[88.8,27.2],[88.0,27.2],[88.0,28.2]]]}},{"type":"Feature","properties":{"name":"Assam"},"geometry":{"type":"Polygon","coordinates":[[[89.5,26.8],[95.5,27.2],[95.2,25.0],[90.5,25.0],[89.5,26.8]]]}},{"type":"Feature","properties":{"name":"Arunachal Pradesh"},"geometry":{"type":"Polygon","coordinates":[[[93.0,29.5],[97.5,29.0],[97.2,27.0],[93.0,27.2],[93.0,29.5]]]}},{"type":"Feature","properties":{"name":"Nagaland"},"geometry":{"type":"Polygon","coordinates":[[[94.8,26.8],[96.5,26.5],[96.5,25.2],[94.8,25.0],[94.8,26.8]]]}},{"type":"Feature","properties":{"name":"Manipur"},"geometry":{"type":"Polygon","coordinates":[[[93.5,25.2],[95.2,25.0],[95.2,23.8],[93.5,23.8],[93.5,25.2]]]}},{"type":"Feature","properties":{"name":"Mizoram"},"geometry":{"type":"Polygon","coordinates":[[[92.0,24.0],[93.5,24.0],[93.5,21.8],[92.0,21.8],[92.0,24.0]]]}},{"type":"Feature","properties":{"name":"Meghalaya"},"geometry":{"type":"Polygon","coordinates":[[[90.0,25.8],[92.8,25.8],[92.8,24.8],[90.0,24.8],[90.0,25.8]]]}},{"type":"Feature","properties":{"name":"Tripura"},"geometry":{"type":"Polygon","coordinates":[[[91.0,24.2],[92.0,24.2],[92.0,22.8],[91.0,22.8],[91.0,24.2]]]}}]}